CONNECTA T1.2           
1 55012U 23001D   26157.64998510  .00035354  00000+0  63244-3 0  9993
2 55012  97.3277 228.1595 0006829 133.1862 226.9962 15.49894341190915
BIRKELAND               
1 55015U 23001G   26157.94495824  .00009977  00000+0  25272-3 0  9990
2 55015  97.3344 225.8900 0008110 134.5203 225.6707 15.39896245190777
ION SCV-008             
1 55051U 23001AU  26157.17436028  .00008495  00000+0  30846-3 0  9993
2 55051  97.5702 253.3098 0015991  55.3206 304.9537 15.28443568189650
ION SCV-007             
1 55060U 23001BD  26157.63352235  .00000477  00000+0  73847-4 0  9992
2 55060  97.9009 220.8573 0012648  16.7108 343.4517 14.77543979184694
HUYGENS                 
1 55093U 23001CN  26157.94506047  .00013440  00000+0  33925-3 0  9990
2 55093  97.3249 225.1332 0011175 117.4278 242.8106 15.39893723190790
SHARJAHSAT-1            
1 55104U 23001CZ  26157.90512627  .00023444  00000+0  43888-3 0  9994
2 55104  97.3172 226.5316 0007057 133.0772 227.1070 15.48673807190900
HORUS 1                 
1 55690U 23025A   26157.97241395  .00006587  00000+0  27893-3 0  9995
2 55690  97.3459 232.7813 0002047 129.4635 230.6783 15.23494583182490
HORUS 2                 
1 55844U 23032A   26157.94151425  .00006615  00000+0  28159-3 0  9993
2 55844  97.3531 233.5484 0002108 114.4615 245.6842 15.23317808179925
GLOBAL-19               
1 55982U 23041B   26157.77287842  .00016213  00000+0  42790-3 0  9992
2 55982  42.0027 262.6048 0009018 291.1397  68.8479 15.38119609180323
BRO-9                   
1 56185U 23054H   26157.94246828  .00461017  87075-4  12186-2 0  9993
2 56185  97.2934  75.5849 0006578 133.5431 226.6392 15.94669036177458
ION SCV-010             
1 56192U 23054Q   26157.66932778  .00005234  00000+0  20542-3 0  9995
2 56192  97.3789  47.3048 0011355 237.1852 122.8294 15.26106011174594
TELEOS-2                
1 56310U 23057C   26156.89202269 -.00001719  00000+0 -20690-3 0  9999
2 56310   9.9854 286.4560 0001117  55.0249 305.0069 14.96374255171107
SNIPE 4                 
1 56744U 23072B   26157.89699591  .00022596  00000+0  53203-3 0  9996
2 56744  97.5263   3.5784 0005369  18.7554 341.3889 15.41946222168524
SNIPE 2                 
1 56745U 23072C   26157.96943339  .00028206  00000+0  57174-3 0  9992
2 56745  97.5257   6.6271 0005267  48.4453 311.7247 15.46346481168668
2023-072G               
1 56749U 23072G   26157.92960177  .00033947  00000+0  60578-3 0  9991
2 56749  97.4921   5.3774 0004001  40.8941 319.2609 15.49990904168872
GEISAT PRECURSOR        
1 56934U 23084C   26157.91630044  .00008124  00000+0  24538-3 0  9991
2 56934  97.6214 298.5335 0005934  34.8460 325.3170 15.34511461165957
BLACKJACK ACES-3        
1 56950U 23084U   26157.62624292  .00006484  00000+0  31844-3 0  9990
2 56950  97.6202 292.7388 0003475  62.2319 297.9267 15.18412744165566
BLACKJACK ACES-2        
1 56955U 23084Z   26157.69880078  .00008456  00000+0  41336-3 0  9996
2 56955  97.6200 292.8959 0001707  72.8168 287.3252 15.18482006165586
BLACKJACK ACES-1        
1 56956U 23084AA  26156.89613755  .00008969  00000+0  43851-3 0  9997
2 56956  97.6191 291.8617 0001335  96.4000 263.7386 15.18458699115188
ION SCV-011             
1 56957U 23084AB  26157.46301667  .00006679  00000+0  24194-3 0  9993
2 56957  98.1385 343.7497 0008477  78.1671 282.0517 15.28741173164174
GHOST-3                 
1 56958U 23084AC  26157.68962747  .00022230  00000+0  43322-3 0  9995
2 56958  97.6206 305.7026 0005749 338.5654  21.5354 15.47539229166399
TOMORROW-R2             
1 56962U 23084AG  26157.18601151  .00433704  81954-4  89381-3 0  9993
2 56962  97.5980 319.8732 0006228 249.2732 110.7878 15.99232517167299
AFR-1                   
1 56964U 23084AJ  26157.95434389  .00005146  00000+0  18828-3 0  9998
2 56964  97.6263 294.4008 0010889  22.9651 337.2072 15.28468849165666
METEOR-M2 3             
1 57166U 23091A   26157.98069729  .00000005  00000+0  20808-4 0  9997
2 57166  98.6086 213.1674 0003764 182.9588 177.1569 14.24045987153064
UMKA 1 (RS40S)          
1 57172U 23091G   26157.89512479  .00007192  00000+0  32950-3 0  9993
2 57172  97.5051 216.6327 0013722 150.0105 210.1919 15.20699091162447
2023-091H               
1 57173U 23091H   26157.90503042  .00013305  00000+0  48259-3 0  9994
2 57173  97.5049 221.0154 0010950 144.3914 215.8058 15.28412188162733
2023-091J               
1 57174U 23091J   26157.94337066  .00004099  00000+0  22990-3 0  9994
2 57174  97.5058 211.1862 0013445 176.3178 183.8155 15.13857327162081
CUBEBEL 2 (EU11S)       
1 57175U 23091K   26157.90928012  .00014552  00000+0  51961-3 0  9993
2 57175  97.5052 221.0363 0010978 146.0624 214.1320 15.28904564162736
SITRO-AIS 5 (KATYS)     
1 57176U 23091L   26157.92836803  .00014811  00000+0  52345-3 0  9997
2 57176  97.5060 221.7320 0012612 135.2715 224.9544 15.29218397162778
ZORKIY-2M 1             
1 57177U 23091M   26157.94783767  .00007777  00000+0  35525-3 0  9994
2 57177  97.5091 216.9465 0014333 147.2986 212.9140 15.20768307162449
