OBJECT_NAME,OBJECT_ID,EPOCH,MEAN_MOTION,ECCENTRICITY,INCLINATION,RA_OF_ASC_NODE,ARG_OF_PERICENTER,MEAN_ANOMALY,EPHEMERIS_TYPE,CLASSIFICATION_TYPE,NORAD_CAT_ID,ELEMENT_SET_NO,REV_AT_EPOCH,BSTAR,MEAN_MOTION_DOT,MEAN_MOTION_DDOT
CONNECTA T1.2,2023-001D,2026-06-06T15:35:58.712640,15.49894341,.00068294,97.3277,228.1595,133.1862,226.9962,0,U,55012,999,19091,.63244255E-3,.35354E-3,0
BIRKELAND,2023-001G,2026-06-06T22:40:44.391936,15.39896245,.00081103,97.3344,225.8900,134.5203,225.6707,0,U,55015,999,19077,.25271656E-3,.9977E-4,0
ION SCV-008,2023-001AU,2026-06-06T04:11:04.728192,15.28443568,.0015991,97.5702,253.3098,55.3206,304.9537,0,U,55051,999,18965,.30846E-3,.8495E-4,0
ION SCV-007,2023-001BD,2026-06-06T15:12:16.331040,14.77543979,.00126482,97.9009,220.8573,16.7108,343.4517,0,U,55060,999,18469,.73847426E-4,.477E-5,0
HUYGENS,2023-001CN,2026-06-06T22:40:53.224608,15.39893723,.00111752,97.3249,225.1332,117.4278,242.8106,0,U,55093,999,19079,.33925046E-3,.1344E-3,0
SHARJAHSAT-1,2023-001CZ,2026-06-06T21:43:22.909728,15.48673807,.00070579,97.3172,226.5316,133.0772,227.1070,0,U,55104,999,19090,.43887625E-3,.23444E-3,0
HORUS 1,2023-025A,2026-06-06T23:20:16.565280,15.23494583,.00020477,97.3459,232.7813,129.4635,230.6783,0,U,55690,999,18249,.27893342E-3,.6587E-4,0
HORUS 2,2023-032A,2026-06-06T22:35:46.831200,15.23317808,.00021088,97.3531,233.5484,114.4615,245.6842,0,U,55844,999,17992,.28159179E-3,.6615E-4,0
GLOBAL-19,2023-041B,2026-06-06T18:32:56.695488,15.38119609,.00090186,42.0027,262.6048,291.1397,68.8479,0,U,55982,999,18032,.4278986E-3,.16213E-3,0
BRO-9,2023-054H,2026-06-06T22:37:09.259392,15.94669036,.00065786,97.2934,75.5849,133.5431,226.6392,0,U,56185,999,17745,.12186029E-2,.461017E-2,.87075137E-4
ION SCV-010,2023-054Q,2026-06-06T16:03:49.920192,15.26106011,.00113556,97.3789,47.3048,237.1852,122.8294,0,U,56192,999,17459,.20541874E-3,.5234E-4,0
TELEOS-2,2023-057C,2026-06-05T21:24:30.760416,14.96374255,.0001117,9.9854,286.4560,55.0249,305.0069,0,U,56310,999,17110,-.2069E-3,-.1719E-4,0
SNIPE 4,2023-072B,2026-06-06T21:31:40.446624,15.41946222,.00053692,97.5263,3.5784,18.7554,341.3889,0,U,56744,999,16852,.53203036E-3,.22596E-3,0
SNIPE 2,2023-072C,2026-06-06T23:15:59.044896,15.46346481,.00052673,97.5257,6.6271,48.4453,311.7247,0,U,56745,999,16866,.57174008E-3,.28206E-3,0
2023-072G,2023-072G,2026-06-06T22:18:37.592928,15.49990904,.00040015,97.4921,5.3774,40.8941,319.2609,0,U,56749,999,16887,.60577577E-3,.33947E-3,0
GEISAT PRECURSOR,2023-084C,2026-06-06T21:59:28.358016,15.34511461,.00059349,97.6214,298.5335,34.8460,325.3170,0,U,56934,999,16595,.24538452E-3,.8124E-4,0
BLACKJACK ACES-3,2023-084U,2026-06-06T15:01:47.388288,15.18412744,.0003475,97.6202,292.7388,62.2319,297.9267,0,U,56950,999,16556,.31844E-3,.6484E-4,0
BLACKJACK ACES-2,2023-084Z,2026-06-06T16:46:16.387392,15.18482006,.00017075,97.6200,292.8959,72.8168,287.3252,0,U,56955,999,16558,.41336339E-3,.8456E-4,0
BLACKJACK ACES-1,2023-084AA,2026-06-05T21:30:26.284320,15.18458699,.0001335,97.6191,291.8617,96.4000,263.7386,0,U,56956,999,11518,.43851E-3,.8969E-4,0
ION SCV-011,2023-084AB,2026-06-06T11:06:44.640288,15.28741173,.0008477,98.1385,343.7497,78.1671,282.0517,0,U,56957,999,16417,.24193955E-3,.6679E-4,0
GHOST-3,2023-084AC,2026-06-06T16:33:03.813408,15.47539229,.00057493,97.6206,305.7026,338.5654,21.5354,0,U,56958,999,16639,.43322039E-3,.2223E-3,0
TOMORROW-R2,2023-084AG,2026-06-06T04:27:51.394464,15.99232517,.00062281,97.5980,319.8732,249.2732,110.7878,0,U,56962,999,16729,.89380965E-3,.433704E-2,.81954079E-4
AFR-1,2023-084AJ,2026-06-06T22:54:15.312096,15.28468849,.00108896,97.6263,294.4008,22.9651,337.2072,0,U,56964,999,16566,.18827519E-3,.5146E-4,0
METEOR-M2 3,2023-091A,2026-06-06T23:32:12.245856,14.24045987,.00037646,98.6086,213.1674,182.9588,177.1569,0,U,57166,999,15306,.20807706E-4,.5E-7,0
UMKA 1 (RS40S),2023-091G,2026-06-06T21:28:58.781856,15.20699091,.00137222,97.5051,216.6327,150.0105,210.1919,0,U,57172,999,16244,.32949659E-3,.7192E-4,0
2023-091H,2023-091H,2026-06-06T21:43:14.628288,15.28412188,.00109503,97.5049,221.0154,144.3914,215.8058,0,U,57173,999,16273,.48258996E-3,.13305E-3,0
2023-091J,2023-091J,2026-06-06T22:38:27.225024,15.13857327,.00134454,97.5058,211.1862,176.3178,183.8155,0,U,57174,999,16208,.22989713E-3,.4099E-4,0
CUBEBEL 2 (EU11S),2023-091K,2026-06-06T21:49:21.802368,15.28904564,.00109784,97.5052,221.0363,146.0624,214.1320,0,U,57175,999,16273,.51960611E-3,.14552E-3,0
SITRO-AIS 5 (KATYS),2023-091L,2026-06-06T22:16:50.997792,15.29218397,.00126128,97.5060,221.7320,135.2715,224.9544,0,U,57176,999,16277,.52344783E-3,.14811E-3,0
ZORKIY-2M 1,2023-091M,2026-06-06T22:44:53.174688,15.20768307,.00143332,97.5091,216.9465,147.2986,212.9140,0,U,57177,999,16244,.35525197E-3,.7777E-4,0
